{
    "CCSDS_OMM_VERS": "3.0",
    "COMMENT": "GENERATED VIA SPACE-TRACK.ORG API",
    "CREATION_DATE": "2025-11-22T18:56:57",
    "ORIGINATOR": "18 SPCS",
    "OBJECT_NAME": "GALILEO-FM3",
    "OBJECT_ID": "2012-055A",
    "CENTER_NAME": "EARTH",
    "REF_FRAME": "TEME",
    "TIME_SYSTEM": "UTC",
    "MEAN_ELEMENT_THEORY": "SGP4",
    "EPOCH": "2025-11-21T19:46:23.233728",
    "MEAN_MOTION": "1.70473477",
    "ECCENTRICITY": "0.00020603",
    "INCLINATION": "55.6800",
    "RA_OF_ASC_NODE": "107.2409",
    "ARG_OF_PERICENTER": "267.2459",
    "MEAN_ANOMALY": "92.6928",
    "EPHEMERIS_TYPE": "0",
    "CLASSIFICATION_TYPE": "U",
    "NORAD_CAT_ID": "38857",
    "ELEMENT_SET_NO": "999",
    "REV_AT_EPOCH": "8147",
    "BSTAR": "0.00000000000000",
    "MEAN_MOTION_DOT": "0.00000033",
    "MEAN_MOTION_DDOT": "0.0000000000000",
    "SEMIMAJOR_AXIS": "29600.381",
    "PERIOD": "844.706",
    "APOAPSIS": "23228.344",
    "PERIAPSIS": "23216.147",
    "OBJECT_TYPE": "PAYLOAD",
    "RCS_SIZE": "LARGE",
    "COUNTRY_CODE": "ESA",
    "LAUNCH_DATE": "2012-10-12",
    "SITE": "FRGUI",
    "DECAY_DATE": null,
    "FILE": "4894246",
    "GP_ID": "303251205",
    "TLE_LINE0": "0 GALILEO-FM3",
    "TLE_LINE1": "1 38857U 12055A   25325.82388002  .00000033  00000-0  00000-0 0  9998",
    "TLE_LINE2": "2 38857  55.6800 107.2409 0002060 267.2459  92.6928  1.70473477 81479"
}